NORAD_CAT_ID,OBJECT_NAME,OBJECT_TYPE,EPOCH,MEAN_MOTION,ECCENTRICITY,INCLINATION,RA_OF_ASC_NODE,ARG_OF_PERICENTER,MEAN_ANOMALY,BSTAR,MEAN_MOTION_DOT,MEAN_MOTION_DDOT,TLE_LINE0,TLE_LINE1,TLE_LINE2,SEMIMAJOR_AXIS,PERIOD,APOGEE,PERIGEE,DECAYED
52478.0,STARLINK-3825,PAYLOAD,2024-05-08 21:05:04,15.08840236,0.0001318,53.2141,186.0204,90.5925,269.5218,0.00020619,2.995e-05,0.0,0 STARLINK-3825,1 52478U 22049AD  24129.87852198  .00002995  00000-0  20619-3 0  9995,2 52478  53.2141 186.0204 0001318  90.5925 269.5218 15.08840236111292,6917.88,95.438,540.656,538.833,0.0
52478.0,STARLINK-3825,PAYLOAD,2024-05-09 11:23:32,15.08844679,0.0001296,53.2139,183.3426,93.4337,266.6804,0.00025107,3.711e-05,0.0,0 STARLINK-3825,1 52478U 22049AD  24130.47468224  .00003711  00000-0  25107-3 0  9990,2 52478  53.2139 183.3426 0001296  93.4337 266.6804 15.08844679112463,6917.866,95.437,540.628,538.835,0.0
52478.0,STARLINK-3825,PAYLOAD,2024-05-10 03:17:23,15.08847499,0.0001309,53.2136,180.3698,90.0418,270.0724,0.00033273,5.013e-05,0.0,0 STARLINK-3825,1 52478U 22049AD  24131.13708302  .00005013  00000-0  33273-3 0  9998,2 52478  53.2136 180.3698 0001309  90.0418 270.0724 15.08847499111480,6917.857,95.437,540.628,538.817,0.0
52478.0,STARLINK-3825,PAYLOAD,2024-05-10 09:38:56,15.08850244,0.0001291,53.2133,179.1796,93.1729,266.9411,0.00034884,5.27e-05,0.0,0 STARLINK-3825,1 52478U 22049AD  24131.40204095  .00005270  00000-0  34884-3 0  9992,2 52478  53.2133 179.1796 0001291  93.1729 266.9411 15.08850244112605,6917.849,95.437,540.607,538.821,0.0
52478.0,STARLINK-3825,PAYLOAD,2024-05-11 09:29:41,15.08912508,0.0001387,53.2132,174.718,88.1083,272.0068,0.0018379,0.00029142,0.0,0 STARLINK-3825,1 52478U 22049AD  24132.39562312  .00029142  00000-0  18379-2 0  9994,2 52478  53.2132 174.7180 0001387  88.1083 272.0068 15.08912508111679,6917.659,95.433,540.483,538.564,0.0
52478.0,STARLINK-3825,PAYLOAD,2024-05-12 04:34:23,15.08746211,0.000181,53.2128,171.1516,356.8677,3.2303,-0.00186,-0.00029693,0.0,0 STARLINK-3825,1 52478U 22049AD  24133.19055185 -.00029693  00000-0 -18600-2 0  9998,2 52478  53.2128 171.1516 0001810 356.8677   3.2303 15.08746211111798,6918.167,95.443,541.284,538.78,0.0
52478.0,STARLINK-3825,PAYLOAD,2024-05-12 09:20:34,15.08746714,0.000121,53.2144,170.2614,89.324,270.789,0.0021668,0.00034277,0.0,0 STARLINK-3825,1 52478U 22049AD  24133.38928486  .00034277  00000-0  21668-2 0  9992,2 52478  53.2144 170.2614 0001210  89.3240 270.7890 15.08746714111827,6918.166,95.443,540.868,539.193,0.0
52478.0,STARLINK-3825,PAYLOAD,2024-05-12 18:52:54,15.08795607,0.000112,53.2155,168.4756,86.2478,273.8642,0.003039,0.00048351,0.0,0 STARLINK-3825,1 52478U 22049AD  24133.78673831  .00048351  00000-0  30390-2 0  9997,2 52478  53.2155 168.4756 0001120  86.2478 273.8642 15.08795607111884,6918.016,95.44,540.656,539.106,0.0
52478.0,STARLINK-3825,PAYLOAD,2024-05-13 12:22:08,15.08849353,0.0001058,53.2135,165.2039,86.8069,273.3044,0.0010098,0.00015824,0.0,0 STARLINK-3825,1 52478U 22049AD  24134.51537596  .00015824  00000-0  10098-2 0  9998,2 52478  53.2135 165.2039 0001058  86.8069 273.3044 15.08849353113075,6917.852,95.437,540.449,538.985,0.0
52478.0,STARLINK-3825,PAYLOAD,2024-05-14 12:12:54,15.08860492,0.0001214,53.2142,160.7429,76.4216,283.6911,0.00051109,7.86e-05,0.0,0 STARLINK-3825,1 52478U 22049AD  24135.50896744  .00007860  00000-0  51109-3 0  9991,2 52478  53.2142 160.7429 0001214  76.4216 283.6911 15.08860492112140,6917.818,95.436,540.523,538.843,0.0
52478.0,STARLINK-3825,PAYLOAD,2024-05-14 18:34:26,15.08866523,0.0001259,53.2145,159.554,79.9339,280.1795,0.00056615,8.74e-05,0.0,0 STARLINK-3825,1 52478U 22049AD  24135.77392289  .00008740  00000-0  56615-3 0  9990,2 52478  53.2145 159.5540 0001259  79.9339 280.1795 15.08866523113263,6917.799,95.436,540.535,538.793,0.0
52478.0,STARLINK-3825,PAYLOAD,2024-05-15 10:28:16,15.08884365,0.0001278,53.2143,156.5803,81.0221,279.0916,0.0007967,0.0001243,0.0,0 STARLINK-3825,1 52478U 22049AD  24136.43630713  .00012430  00000-0  79670-3 0  9998,2 52478  53.2143 156.5803 0001278  81.0221 279.0916 15.08884365113362,6917.745,95.435,540.494,538.726,0.0
52478.0,STARLINK-3825,PAYLOAD,2024-05-16 05:32:53,15.08874967,0.0001332,53.2143,153.0094,103.8181,256.2959,0.00027699,4.127e-05,0.0,0 STARLINK-3825,1 52478U 22049AD  24137.23117224  .00004127  00000-0  27699-3 0  9992,2 52478  53.2143 153.0094 0001332 103.8181 256.2959 15.08874967112400,6917.774,95.435,540.56,538.717,0.0
52478.0,STARLINK-3825,PAYLOAD,2024-05-16 07:08:16,15.08869692,0.0001359,53.2146,152.7131,95.5533,264.5614,9.8979e-05,1.289e-05,0.0,0 STARLINK-3825,1 52478U 22049AD  24137.29741170  .00001289  00000-0  98979-4 0  9997,2 52478  53.2146 152.7131 0001359  95.5533 264.5614 15.08869692113497,6917.79,95.436,540.595,538.715,0.0
52478.0,STARLINK-3825,PAYLOAD,2024-05-16 18:15:57,15.08865173,0.0001222,53.2133,150.6304,90.3369,269.7764,1.7106e-05,-1.5e-07,0.0,0 STARLINK-3825,1 52478U 22049AD  24137.76108662 -.00000015  00000-0  17106-4 0  9992,2 52478  53.2133 150.6304 0001222  90.3369 269.7764 15.08865173112482,6917.803,95.436,540.514,538.823,0.0
52478.0,STARLINK-3825,PAYLOAD,2024-05-17 05:23:39,15.08858351,0.0001985,53.216,148.5504,82.8652,277.2565,-8.574e-05,-1.653e-05,0.0,0 STARLINK-3825,1 52478U 22049AD  24138.22476805 -.00001653  00000-0 -85740-4 0  9990,2 52478  53.2160 148.5504 0001985  82.8652 277.2565 15.08858351112558,6917.824,95.436,541.062,538.316,0.0
52478.0,STARLINK-3825,PAYLOAD,2024-05-17 06:59:02,15.08855781,0.0001511,53.2151,148.2533,88.6816,271.4349,-0.00011386,-2.1e-05,0.0,0 STARLINK-3825,1 52478U 22049AD  24138.29100681 -.00002100  00000-0 -11386-3 0  9995,2 52478  53.2151 148.2533 0001511  88.6816 271.4349 15.08855781113649,6917.832,95.437,540.742,538.652,0.0
52478.0,STARLINK-3825,PAYLOAD,2024-05-17 18:06:44,15.08851853,0.0001497,53.2147,146.1723,82.019,278.0972,-0.00013236,-2.395e-05,0.0,0 STARLINK-3825,1 52478U 22049AD  24138.75468509 -.00002395  00000-0 -13236-3 0  9994,2 52478  53.2147 146.1723 0001497  82.0190 278.0972 15.08851853113717,6917.844,95.437,540.745,538.674,0.0
52478.0,STARLINK-3825,PAYLOAD,2024-05-18 05:14:27,15.08841716,0.0001645,53.2153,144.0905,87.8327,272.2853,-0.00011607,-2.135e-05,0.0,0 STARLINK-3825,1 52478U 22049AD  24139.21836966 -.00002135  00000-0 -11607-3 0  9994,2 52478  53.2153 144.0905 0001645  87.8327 272.2853 15.08841716112702,6917.875,95.437,540.878,538.602,0.0
52478.0,STARLINK-3825,PAYLOAD,2024-05-18 06:49:50,15.08848232,0.0001503,53.2155,143.7919,97.4262,262.6901,-7.1105e-05,-1.42e-05,0.0,0 STARLINK-3825,1 52478U 22049AD  24139.28460849 -.00001420  00000-0 -71105-4 0  9990,2 52478  53.2155 143.7919 0001503  97.4262 262.6901 15.08848232113790,6917.855,95.437,540.76,538.68,0.0
52478.0,STARLINK-3825,PAYLOAD,2024-05-19 03:29:52,15.08779084,0.0001369,53.2155,139.9263,112.605,247.5087,0.00085458,0.00013316,0.0,0 STARLINK-3825,1 52478U 22049AD  24140.14574983  .00013316  00000-0  85458-3 0  9992,2 52478  53.2155 139.9263 0001369 112.6050 247.5087 15.08779084112844,6918.067,95.441,540.879,538.985,0.0
52478.0,STARLINK-3825,PAYLOAD,2024-05-19 09:51:23,15.08836371,0.0001608,53.2155,138.7371,98.9126,261.2048,1.8527e-05,7e-08,0.0,0 STARLINK-3825,1 52478U 22049AD  24140.41069264  .00000007  00000-0  18527-4 0  9990,2 52478  53.2155 138.7371 0001608  98.9126 261.2048 15.08836371113964,6917.891,95.438,540.869,538.644,0.0
52478.0,STARLINK-3825,PAYLOAD,2024-05-20 04:56:02,15.08827478,0.0001613,53.2156,135.1676,100.5534,259.564,-6.2652e-07,-2.98e-06,0.0,0 STARLINK-3825,1 52478U 22049AD  24141.20558331 -.00000298  00000-0 -62652-6 0  9990,2 52478  53.2156 135.1676 0001613 100.5534 259.5640 15.08827478113004,6917.919,95.438,540.9,538.668,0.0
52478.0,STARLINK-3825,PAYLOAD,2024-05-20 09:42:11,15.0882897,0.0001592,53.2156,134.2754,99.8819,260.2353,2.8502e-07,-2.83e-06,0.0,0 STARLINK-3825,1 52478U 22049AD  24141.40430352 -.00000283  00000-0  28502-6 0  9993,2 52478  53.2156 134.2754 0001592  99.8819 260.2353 15.08828970114114,6917.914,95.438,540.88,538.678,0.0
52478.0,STARLINK-3825,PAYLOAD,2024-05-21 04:46:48,15.08842403,0.0001483,53.2155,130.7081,90.5808,269.5354,0.00013433,1.851e-05,0.0,0 STARLINK-3825,1 52478U 22049AD  24142.19917314  .00001851  00000-0  13433-3 0  9993,2 52478  53.2155 130.7081 0001483  90.5808 269.5354 15.08842403113155,6917.873,95.437,540.764,538.712,0.0
52478.0,STARLINK-3825,PAYLOAD,2024-05-22 04:37:36,15.08838066,0.0001393,53.2156,126.2504,83.5707,276.5444,7.1418e-05,8.49e-06,0.0,0 STARLINK-3825,1 52478U 22049AD  24143.19278010  .00000849  00000-0  71418-4 0  9991,2 52478  53.2156 126.2504 0001393  83.5707 276.5444 15.08838066113301,6917.886,95.438,540.715,538.788,0.0
52478.0,STARLINK-3825,PAYLOAD,2024-05-22 06:12:59,15.08836323,0.0001577,53.2164,125.9464,91.4846,268.6327,8.458e-05,1.058e-05,0.0,0 STARLINK-3825,1 52478U 22049AD  24143.25902009  .00001058  00000-0  84580-4 0  9997,2 52478  53.2164 125.9464 0001577  91.4846 268.6327 15.08836323114393,6917.892,95.438,540.848,538.666,0.0
52478.0,STARLINK-3825,PAYLOAD,2024-05-23 06:03:46,15.08839864,0.0001782,53.2169,121.484,67.4371,292.681,-1.1469e-05,-4.71e-06,0.0,0 STARLINK-3825,1 52478U 22049AD  24144.25262225 -.00000471  00000-0 -11469-4 0  9993,2 52478  53.2169 121.4840 0001782  67.4371 292.6810 15.08839864113465,6917.881,95.438,540.979,538.513,0.0
52478.0,STARLINK-3825,PAYLOAD,2024-05-24 07:29:56,15.08844757,0.0001546,53.2165,116.7319,83.3715,276.7453,8.8699e-05,1.124e-05,0.0,0 STARLINK-3825,1 52478U 22049AD  24145.31245513  .00001124  00000-0  88699-4 0  9995,2 52478  53.2165 116.7319 0001546  83.3715 276.7453 15.08844757113627,6917.866,95.437,540.8,538.661,0.0
52478.0,STARLINK-3825,PAYLOAD,2024-05-24 21:48:24,15.08840071,0.0001762,53.2173,114.0539,118.1463,241.9707,7.5004e-06,-1.69e-06,0.0,0 STARLINK-3825,1 52478U 22049AD  24145.90861949 -.00000169  00000-0  75004-5 0  9993,2 52478  53.2173 114.0539 0001762 118.1463 241.9707 15.08840071113719,6917.88,95.438,540.964,538.526,0.0
